EXPRESS-AMU1            
1 41191U 15082A   17345.96945882  .00000150  00000-0  00000-0 0  9999
2 41191   0.0033  30.6350 0002372 210.1127 225.2254  1.00274177  7333
